NORAD_CAT_ID,OBJECT_NAME,OBJECT_TYPE,EPOCH,MEAN_MOTION,ECCENTRICITY,INCLINATION,RA_OF_ASC_NODE,ARG_OF_PERICENTER,MEAN_ANOMALY,BSTAR,MEAN_MOTION_DOT,MEAN_MOTION_DDOT,TLE_LINE0,TLE_LINE1,TLE_LINE2,SEMIMAJOR_AXIS,PERIOD,APOGEE,PERIGEE,DECAYED
55961.0,STARLINK-5933,PAYLOAD,2024-03-19 20:55:53,14.98300415,0.0002659,69.9981,279.2822,259.2078,100.8781,0.00045758,5.367e-05,0.0,0 STARLINK-5933,1 55961U 23037AZ  24079.87214894  .00005367  00000-0  45758-3 0  9999,2 55961  69.9981 279.2822 0002659 259.2078 100.8781 14.98300415 56996,6950.284,96.109,573.997,570.301,0.0
55961.0,STARLINK-5933,PAYLOAD,2024-03-20 00:08:09,14.98329678,0.0002787,69.9982,278.9456,259.9137,100.1708,-1.0879e-05,-2.23e-06,0.0,0 STARLINK-5933,1 55961U 23037AZ  24080.00566276 -.00000223  00000-0 -10879-4 0  9995,2 55961  69.9982 278.9456 0002787 259.9137 100.1708 14.98329678 57019,6950.194,96.107,573.996,570.122,0.0
55961.0,STARLINK-5933,PAYLOAD,2024-03-20 14:33:21,14.98327561,0.0002854,69.9978,277.4303,261.3763,98.7073,5.3153e-05,5.41e-06,0.0,0 STARLINK-5933,1 55961U 23037AZ  24080.60650188  .00000541  00000-0  53153-4 0  9990,2 55961  69.9978 277.4303 0002854 261.3763  98.7073 14.98327561 56763,6950.2,96.107,574.049,570.082,0.0
55961.0,STARLINK-5933,PAYLOAD,2024-03-20 22:34:02,14.98327445,0.0002851,69.9981,276.5889,261.5332,98.5503,4.8777e-05,4.89e-06,0.0,0 STARLINK-5933,1 55961U 23037AZ  24080.94030251  .00000489  00000-0  48777-4 0  9997,2 55961  69.9981 276.5889 0002851 261.5332  98.5503 14.98327445 56810,6950.201,96.107,574.047,570.084,0.0
55961.0,STARLINK-5933,PAYLOAD,2024-03-21 12:59:14,14.98332108,0.0002979,69.9976,275.0723,265.9387,94.1431,2.8499e-05,2.47e-06,0.0,0 STARLINK-5933,1 55961U 23037AZ  24081.54114044  .00000247  00000-0  28499-4 0  9998,2 55961  69.9976 275.0723 0002979 265.9387  94.1431 14.98332108 57246,6950.186,96.107,574.122,569.981,0.0
55961.0,STARLINK-5933,PAYLOAD,2024-03-21 14:35:22,14.98332494,0.0002973,69.9976,274.9039,265.891,94.191,3.3085e-05,3.02e-06,0.0,0 STARLINK-5933,1 55961U 23037AZ  24081.60789993  .00000302  00000-0  33085-4 0  9995,2 55961  69.9976 274.9039 0002973 265.8910  94.1910 14.98332494 56912,6950.185,96.107,574.116,569.984,0.0
55961.0,STARLINK-5933,PAYLOAD,2024-03-21 22:36:02,14.98333578,0.0002917,69.9979,274.0629,268.0856,91.9969,4.8747e-05,4.89e-06,0.0,0 STARLINK-5933,1 55961U 23037AZ  24081.94169836  .00000489  00000-0  48747-4 0  9997,2 55961  69.9979 274.0629 0002917 268.0856  91.9969 14.98333578 56961,6950.182,96.107,574.074,570.019,0.0
55961.0,STARLINK-5933,PAYLOAD,2024-03-22 13:01:15,14.98332706,0.0002898,69.998,272.5479,268.2557,91.827,2.2762e-05,1.79e-06,0.0,0 STARLINK-5933,1 55961U 23037AZ  24082.54253806  .00000179  00000-0  22762-4 0  9990,2 55961  69.9980 272.5479 0002898 268.2557  91.8270 14.98332706 57391,6950.185,96.107,574.064,570.035,0.0
55961.0,STARLINK-5933,PAYLOAD,2024-03-22 14:37:23,14.98332793,0.00029,69.9981,272.3795,268.2444,91.8382,2.2923e-05,1.81e-06,0.0,0 STARLINK-5933,1 55961U 23037AZ  24082.60929782  .00000181  00000-0  22923-4 0  9992,2 55961  69.9981 272.3795 0002900 268.2444  91.8382 14.98332793 57064,6950.184,96.107,574.065,570.034,0.0
55961.0,STARLINK-5933,PAYLOAD,2024-03-22 21:01:51,14.98375606,0.0003027,69.9981,271.706,263.4447,96.6367,0.00047868,5.63e-05,0.0,0 STARLINK-5933,1 55961U 23037AZ  24082.87629487  .00005630  00000-0  47868-3 0  9998,2 55961  69.9981 271.7060 0003027 263.4447  96.6367 14.98375606 57441,6950.052,96.104,574.021,569.813,0.0
55961.0,STARLINK-5933,PAYLOAD,2024-03-22 22:37:59,14.98379253,0.0003039,69.9981,271.5376,264.6199,95.4613,0.0005121,6.03e-05,0.0,0 STARLINK-5933,1 55961U 23037AZ  24082.94305000  .00006030  00000-0  51210-3 0  9999,2 55961  69.9981 271.5376 0003039 264.6199  95.4613 14.98379253 57116,6950.041,96.104,574.018,569.793,0.0
55961.0,STARLINK-5933,PAYLOAD,2024-03-23 13:03:15,14.98332545,0.0003085,69.9984,270.0224,265.366,94.7146,-6.6517e-05,-8.87e-06,0.0,0 STARLINK-5933,1 55961U 23037AZ  24083.54392959 -.00000887  00000-0 -66517-4 0  9998,2 55961  69.9984 270.0224 0003085 265.3660  94.7146 14.98332545 57540,6950.185,96.107,574.194,569.906,0.0
55961.0,STARLINK-5933,PAYLOAD,2024-03-23 21:03:56,14.9832551,0.0003137,69.9977,269.1797,279.9116,80.1688,-0.00011993,-1.524e-05,0.0,0 STARLINK-5933,1 55961U 23037AZ  24083.87773618 -.00001524  00000-0 -11993-3 0  9995,2 55961  69.9977 269.1797 0003137 279.9116  80.1688 14.98325510 57590,6950.207,96.107,574.252,569.891,0.0
55961.0,STARLINK-5933,PAYLOAD,2024-03-24 14:41:25,14.98325827,0.0002934,69.9985,267.3296,275.8426,84.2399,-9.0973e-05,-1.178e-05,0.0,0 STARLINK-5933,1 55961U 23037AZ  24084.61209592 -.00001178  00000-0 -90973-4 0  9994,2 55961  69.9985 267.3296 0002934 275.8426  84.2399 14.98325827 57366,6950.206,96.107,574.11,570.032,0.0
55961.0,STARLINK-5933,PAYLOAD,2024-03-24 21:05:57,14.98329788,0.0002875,69.9986,266.6561,274.7649,85.3181,-6.0109e-05,-8.1e-06,0.0,0 STARLINK-5933,1 55961U 23037AZ  24084.87913324 -.00000810  00000-0 -60109-4 0  9997,2 55961  69.9986 266.6561 0002875 274.7649  85.3181 14.98329788 57746,6950.194,96.107,574.057,570.06,0.0
55961.0,STARLINK-5933,PAYLOAD,2024-03-25 05:06:36,14.9834888,0.0002816,69.9989,265.8142,275.3991,84.6847,-0.0004019,-4.887e-05,0.0,0 STARLINK-5933,1 55961U 23037AZ  24085.21292629 -.00004887  00000-0 -40190-3 0  9999,2 55961  69.9989 265.8142 0002816 275.3991  84.6847 14.98348880 57797,6950.135,96.106,573.957,570.042,0.0
55961.0,STARLINK-5933,PAYLOAD,2024-03-25 13:07:17,14.98318864,0.0002678,69.9986,264.9734,274.0605,86.0248,0.00010523,1.162e-05,0.0,0 STARLINK-5933,1 55961U 23037AZ  24085.54673296  .00001162  00000-0  10523-3 0  9996,2 55961  69.9986 264.9734 0002678 274.0605  86.0248 14.98318864 57841,6950.227,96.108,573.954,570.231,0.0
55961.0,STARLINK-5933,PAYLOAD,2024-03-25 21:07:58,14.98320739,0.0002835,69.999,264.1319,276.5184,83.5652,0.00010803,1.196e-05,0.0,0 STARLINK-5933,1 55961U 23037AZ  24085.88053385  .00001196  00000-0  10803-3 0  9992,2 55961  69.9990 264.1319 0002835 276.5184  83.5652 14.98320739 57554,6950.222,96.108,574.057,570.116,0.0
55961.0,STARLINK-5933,PAYLOAD,2024-03-26 13:09:19,14.98316766,0.0002944,69.9994,262.4488,276.1153,83.9671,-2.439e-05,-3.84e-06,0.0,0 STARLINK-5933,1 55961U 23037AZ  24086.54814400 -.00000384  00000-0 -24390-4 0  9996,2 55961  69.9994 262.4488 0002944 276.1153  83.9671 14.98316766 57997,6950.234,96.108,574.145,570.053,0.0
55961.0,STARLINK-5933,PAYLOAD,2024-03-26 14:45:27,14.98317004,0.0002933,69.9993,262.2804,276.2355,83.8469,-2.8678e-05,-4.35e-06,0.0,0 STARLINK-5933,1 55961U 23037AZ  24086.61490450 -.00000435  00000-0 -28678-4 0  9999,2 55961  69.9993 262.2804 0002933 276.2355  83.8469 14.98317004 57663,6950.233,96.108,574.137,570.06,0.0
55961.0,STARLINK-5933,PAYLOAD,2024-03-26 21:09:59,14.98321646,0.0002957,69.9995,261.6074,274.7367,85.3454,-5.8768e-06,-1.63e-06,0.0,0 STARLINK-5933,1 55961U 23037AZ  24086.88194240 -.00000163  00000-0 -58768-5 0  9998,2 55961  69.9995 261.6074 0002957 274.7367  85.3454 14.98321646 57702,6950.219,96.108,574.139,570.029,0.0
55961.0,STARLINK-5933,PAYLOAD,2024-03-27 05:10:40,14.98323915,0.0003012,69.9994,260.7654,275.2532,84.8284,4.2452e-06,-4.2e-07,0.0,0 STARLINK-5933,1 55961U 23037AZ  24087.21574204 -.00000042  00000-0  42452-5 0  9996,2 55961  69.9994 260.7654 0003012 275.2532  84.8284 14.98323915 58097,6950.212,96.107,574.17,569.983,0.0
55961.0,STARLINK-5933,PAYLOAD,2024-03-27 14:47:28,14.98327942,0.0003084,69.9994,259.7551,275.5084,84.5723,7.5363e-05,8.06e-06,0.0,0 STARLINK-5933,1 55961U 23037AZ  24087.61629810  .00000806  00000-0  75363-4 0  9997,2 55961  69.9994 259.7551 0003084 275.5084  84.5723 14.98327942 57813,6950.199,96.107,574.208,569.921,0.0
55961.0,STARLINK-5933,PAYLOAD,2024-03-27 21:12:00,14.98333836,0.0003084,69.9994,259.0815,275.0501,85.0306,7.0441e-05,7.48e-06,0.0,0 STARLINK-5933,1 55961U 23037AZ  24087.88333438  .00000748  00000-0  70441-4 0  9991,2 55961  69.9994 259.0815 0003084 275.0501  85.0306 14.98333836 58192,6950.181,96.107,574.189,569.903,0.0
55961.0,STARLINK-5933,PAYLOAD,2024-03-28 13:13:21,14.98326757,0.0003089,69.9995,257.3982,275.0367,85.044,0.00010314,1.138e-05,0.0,0 STARLINK-5933,1 55961U 23037AZ  24088.55093797  .00001138  00000-0  10314-3 0  9993,2 55961  69.9995 257.3982 0003089 275.0367  85.0440 14.98326757 58298,6950.203,96.107,574.215,569.921,0.0
55961.0,STARLINK-5933,PAYLOAD,2024-03-28 21:14:01,14.98332981,0.000309,69.9995,256.5566,275.216,84.8647,0.00010279,1.134e-05,0.0,0 STARLINK-5933,1 55961U 23037AZ  24088.88473394  .00001134  00000-0  10279-3 0  9990,2 55961  69.9995 256.5566 0003090 275.2160  84.8647 14.98332981 58003,6950.184,96.107,574.196,569.901,0.0
55961.0,STARLINK-5933,PAYLOAD,2024-03-29 11:39:13,14.983317,0.0002973,69.9999,255.0416,275.6042,84.4778,-3.7961e-05,-5.46e-06,0.0,0 STARLINK-5933,1 55961U 23037AZ  24089.48557827 -.00000546  00000-0 -37961-4 0  9997,2 55961  69.9999 255.0416 0002973 275.6042  84.4778 14.98331700 58095,6950.188,96.107,574.119,569.986,0.0
55961.0,STARLINK-5933,PAYLOAD,2024-03-29 21:16:02,14.98333162,0.0002925,70.0002,254.0322,274.7963,85.2862,-2.3068e-05,-3.68e-06,0.0,0 STARLINK-5933,1 55961U 23037AZ  24089.88613613 -.00000368  00000-0 -23068-4 0  9992,2 55961  70.0002 254.0322 0002925 274.7963  85.2862 14.98333162 58498,6950.183,96.107,574.081,570.015,0.0
55961.0,STARLINK-5933,PAYLOAD,2024-03-30 13:17:23,14.98323174,0.0002514,69.9969,252.3485,267.8687,92.2184,4.266e-05,4.16e-06,0.0,0 STARLINK-5933,1 55961U 23037AZ  24090.55373924  .00000416  00000-0  42660-4 0  9997,2 55961  69.9969 252.3485 0002514 267.8687  92.2184 14.98323174 58259,6950.214,96.107,573.826,570.332,0.0
55961.0,STARLINK-5933,PAYLOAD,2024-03-30 21:18:04,14.98318253,0.0003091,69.9985,251.5059,276.5895,83.4912,-0.00018086,-2.25e-05,0.0,0 STARLINK-5933,1 55961U 23037AZ  24090.88755036 -.00002250  00000-0 -18086-3 0  9995,2 55961  69.9985 251.5059 0003091 276.5895  83.4912 14.98318253 58640,6950.229,96.108,574.243,569.946,0.0
